0 SAUDISAT 1C
1 27607U 02058C   26161.41203398  .00000888  00000-0  12206-3 0  9991
2 27607  64.5505 149.9474 0075400 263.7335  95.5179 14.83031935263455
0 SAUDISAT 2
1 28371U 04025F   26161.50347897  .00000238  00000-0  64243-4 0  9997
2 28371  98.5506 161.3127 0023873 319.6344  40.3081 14.56679989164775
0 SAUDISAT 3
1 31118U 07012B   26161.59446609  .00000220  00000-0  43768-4 0  9999
2 31118  98.1453 111.9908 0013352 246.6027 113.3776 14.71421795 26777
0 PISAT
1 41784U 16059B   26161.53677298  .00000812  00000-0  14590-3 0  9991
2 41784  97.8178 162.2754 0027899 224.6784 135.2174 14.68972214518765
0 FLYING LAPTOP
1 42831U 17042G   26161.58632163  .00003510  00000-0  27764-3 0  9990
2 42831  97.4659 317.3750 0019266 143.2925 216.9624 15.01103306485463
0 SALSAT
1 46495U 20068K   26161.53894844  .00006924  00000-0  24329-3 0  9999
2 46495  97.8853 164.1992 0008621 335.4923  24.5905 15.29703223314342
